{
    "links": {
        "self": "http://www.neowsapp.com/rest/v1/neo/3120869?api_key=iIulBulltgU6a56xZRHN4H3l9WmuAYTsLGpBGhQ2"
    },
    "id": "3120869",
    "neo_reference_id": "3120869",
    "name": "(2002 GJ1)",
    "designation": "2002 GJ1",
    "nasa_jpl_url": "http://ssd.jpl.nasa.gov/sbdb.cgi?sstr=3120869",
    "absolute_magnitude_h": 23.3,
    "estimated_diameter": {
        "kilometers": {
            "estimated_diameter_min": 0.058150704,
            "estimated_diameter_max": 0.130028927
        },
        "meters": {
            "estimated_diameter_min": 58.1507039646,
            "estimated_diameter_max": 130.0289270043
        },
        "miles": {
            "estimated_diameter_min": 0.0361331611,
            "estimated_diameter_max": 0.0807962044
        },
        "feet": {
            "estimated_diameter_min": 190.7831555951,
            "estimated_diameter_max": 426.6041048727
        }
    },
    "is_potentially_hazardous_asteroid": false,
    "close_approach_data": [
        {
            "close_approach_date": "2002-04-12",
            "close_approach_date_full": "2002-Apr-12 22:05",
            "epoch_date_close_approach": 1018649100000,
            "relative_velocity": {
                "kilometers_per_second": "8.5099308995",
                "kilometers_per_hour": "30635.7512380475",
                "miles_per_hour": "19035.8644289968"
            },
            "miss_distance": {
                "astronomical": "0.0351373318",
                "lunar": "13.6684220702",
                "kilometers": "5256469.994763266",
                "miles": "3266218.9981584308"
            },
            "orbiting_body": "Earth"
        }
    ],
    "orbital_data": {
        "orbit_id": "7",
        "orbit_determination_date": "2017-04-06 09:15:15",
        "first_observation_date": "2002-04-04",
        "last_observation_date": "2002-04-05",
        "data_arc_in_days": 1,
        "observations_used": 15,
        "orbit_uncertainty": "9",
        "minimum_orbit_intersection": ".0326022",
        "jupiter_tisserand_invariant": "3.672",
        "epoch_osculation": "2452369.5",
        "eccentricity": ".5015930070876098",
        "semi_major_axis": "1.994933348294503",
        "inclination": "6.976102369780219",
        "ascending_node_longitude": "187.9121931236298",
        "orbital_period": "1029.179228117488",
        "perihelion_distance": ".9942887311841094",
        "perihelion_argument": "35.25800926335926",
        "aphelion_distance": "2.995577965404897",
        "perihelion_time": "2452394.819171022093",
        "mean_anomaly": "351.1435235778846",
        "mean_motion": ".3497933014626519",
        "equinox": "J2000",
        "orbit_class": {
            "orbit_class_type": "APO",
            "orbit_class_description": "Near-Earth asteroid orbits which cross the Earth’s orbit similar to that of 1862 Apollo",
            "orbit_class_range": "a (semi-major axis) > 1.0 AU; q (perihelion) < 1.017 AU"
        }
    },
    "is_sentry_object": false
}